STARLINK-33680          
1 63287U 25053Y   26068.53585356  .00026875  00000+0  98199-3 0  9999
2 63287  43.0018 242.3219 0001014 208.3718 151.7079 15.27599733 56228
REAL                    
1 64875U 25154G   26068.72233414  .00022901  00000+0  82904-3 0  9994
2 64875  97.4133 137.2581 0001853 118.5876 241.5550 15.28408058 34830
